{
  "type": "FeatureCollection",
  "features": [
    {
      "type": "Feature",
      "properties": {
        "norad_id": 36585,
        "name": "GPS BIIF-1  (PRN 25)",
        "group": "gnss",
        "lat": 8.813114075603572,
        "lon": 29.990675928582185,
        "alt_km": 20259.99530975937,
        "timestamp": "2025-12-05T05:43:15.351236+00:00",
        "meta_object_name": "GPS BIIF-1  (PRN 25)",
        "meta_object_id": "2010-022A",
        "meta_epoch": "2025-12-04T06:16:58.952352",
        "meta_mean_motion": 2.00552666,
        "meta_eccentricity": 0.0125761,
        "meta_inclination": 54.3017,
        "meta_ra_of_asc_node": 216.4159,
        "meta_arg_of_pericenter": 64.9818,
        "meta_mean_anomaly": 117.6828,
        "meta_ephemeris_type": 0,
        "meta_classification_type": "U",
        "meta_norad_cat_id": 36585,
        "meta_element_set_no": 999,
        "meta_rev_at_epoch": 11368,
        "meta_bstar": 0,
        "meta_mean_motion_dot": 7e-07,
        "meta_mean_motion_ddot": 0,
        "tle_line1": "1 36585U 10022A   25338.26179343  .00000070  00000+0  00000+0 0  9993",
        "tle_line2": "2 36585  54.3017 216.4159 0125761  64.9818 117.6828  2.00552666113689"
      },
      "geometry": {
        "type": "Point",
        "coordinates": [
          29.990675928582185,
          8.813114075603572
        ]
      }
    },
    {
      "type": "Feature",
      "properties": {
        "norad_id": 36828,
        "name": "BEIDOU-2 IGSO-1 (C06)",
        "group": "gnss",
        "lat": 52.34037390536916,
        "lon": -84.33752108822445,
        "alt_km": 35863.189682115226,
        "timestamp": "2025-12-05T05:43:15.351249+00:00",
        "meta_object_name": "BEIDOU-2 IGSO-1 (C06)",
        "meta_object_id": "2010-036A",
        "meta_epoch": "2025-12-04T10:48:55.401408",
        "meta_mean_motion": 1.0027836,
        "meta_eccentricity": 0.0051251,
        "meta_inclination": 54.2839,
        "meta_ra_of_asc_node": 164.7233,
        "meta_arg_of_pericenter": 215.778,
        "meta_mean_anomaly": 323.0243,
        "meta_ephemeris_type": 0,
        "meta_classification_type": "U",
        "meta_norad_cat_id": 36828,
        "meta_element_set_no": 999,
        "meta_rev_at_epoch": 5614,
        "meta_bstar": 0,
        "meta_mean_motion_dot": -3.3e-07,
        "meta_mean_motion_ddot": 0,
        "tle_line1": "1 36828U 10036A   25338.45064122 -.00000033  00000+0  00000+0 0  9997",
        "tle_line2": "2 36828  54.2839 164.7233 0051251 215.7780 323.0243  1.00278360 56140"
      },
      "geometry": {
        "type": "Point",
        "coordinates": [
          -84.33752108822445,
          52.34037390536916
        ]
      }
    },
    {
      "type": "Feature",
      "properties": {
        "norad_id": 37210,
        "name": "BEIDOU-2 G4 (C04)",
        "group": "gnss",
        "lat": -2.9860811214302623,
        "lon": -39.74476079025288,
        "alt_km": 35764.42397355579,
        "timestamp": "2025-12-05T05:43:15.351262+00:00",
        "meta_object_name": "BEIDOU-2 G4 (C04)",
        "meta_object_id": "2010-057A",
        "meta_epoch": "2025-12-04T16:11:57.897024",
        "meta_mean_motion": 1.00271291,
        "meta_eccentricity": 0.0010952,
        "meta_inclination": 3.1633,
        "meta_ra_of_asc_node": 69.9584,
        "meta_arg_of_pericenter": 188.8835,
        "meta_mean_anomaly": 217.9649,
        "meta_ephemeris_type": 0,
        "meta_classification_type": "U",
        "meta_norad_cat_id": 37210,
        "meta_element_set_no": 999,
        "meta_rev_at_epoch": 5534,
        "meta_bstar": 0,
        "meta_mean_motion_dot": -9.9e-07,
        "meta_mean_motion_ddot": 0,
        "tle_line1": "1 37210U 10057A   25338.67497566 -.00000099  00000+0  00000+0 0  9994",
        "tle_line2": "2 37210   3.1633  69.9584 0010952 188.8835 217.9649  1.00271291 55348"
      },
      "geometry": {
        "type": "Point",
        "coordinates": [
          -39.74476079025288,
          -2.9860811214302623
        ]
      }
    },
    {
      "type": "Feature",
      "properties": {
        "norad_id": 37256,
        "name": "BEIDOU-2 IGSO-2 (C07)",
        "group": "gnss",
        "lat": -4.805068368110127,
        "lon": -90.14537373589444,
        "alt_km": 35934.843672638344,
        "timestamp": "2025-12-05T05:43:15.351275+00:00",
        "meta_object_name": "BEIDOU-2 IGSO-2 (C07)",
        "meta_object_id": "2010-068A",
        "meta_epoch": "2025-12-03T17:22:36.030432",
        "meta_mean_motion": 1.0028871,
        "meta_eccentricity": 0.00492335,
        "meta_inclination": 47.9043,
        "meta_ra_of_asc_node": 274.2613,
        "meta_arg_of_pericenter": 216.1442,
        "meta_mean_anomaly": 310.2369,
        "meta_ephemeris_type": 0,
        "meta_classification_type": "U",
        "meta_norad_cat_id": 37256,
        "meta_element_set_no": 999,
        "meta_rev_at_epoch": 5483,
        "meta_bstar": 0,
        "meta_mean_motion_dot": -2.25e-06,
        "meta_mean_motion_ddot": 0,
        "tle_line1": "1 37256U 10068A   25337.72402813 -.00000225  00000+0  00000+0 0  9993",
        "tle_line2": "2 37256  47.9043 274.2613 0049233 216.1442 310.2369  1.00288710 54839"
      },
      "geometry": {
        "type": "Point",
        "coordinates": [
          -90.14537373589444,
          -4.805068368110127
        ]
      }
    },
    {
      "type": "Feature",
      "properties": {
        "norad_id": 37384,
        "name": "BEIDOU-2 IGSO-3 (C08)",
        "group": "gnss",
        "lat": -39.511348685125796,
        "lon": -112.15799647979799,
        "alt_km": 35675.453118922334,
        "timestamp": "2025-12-05T05:43:15.351287+00:00",
        "meta_object_name": "BEIDOU-2 IGSO-3 (C08)",
        "meta_object_id": "2011-013A",
        "meta_epoch": "2025-12-03T14:52:09.520896",
        "meta_mean_motion": 1.00272128,
        "meta_eccentricity": 0.00353922,
        "meta_inclination": 62.1308,
        "meta_ra_of_asc_node": 42.005,
        "meta_arg_of_pericenter": 186.5359,
        "meta_mean_anomaly": 174.9093,
        "meta_ephemeris_type": 0,
        "meta_classification_type": "U",
        "meta_norad_cat_id": 37384,
        "meta_element_set_no": 999,
        "meta_rev_at_epoch": 5370,
        "meta_bstar": 0,
        "meta_mean_motion_dot": -1.99e-06,
        "meta_mean_motion_ddot": 0,
        "tle_line1": "1 37384U 11013A   25337.61955464 -.00000199  00000+0  00000+0 0  9999",
        "tle_line2": "2 37384  62.1308  42.0050 0035392 186.5359 174.9093  1.00272128 53708"
      },
      "geometry": {
        "type": "Point",
        "coordinates": [
          -112.15799647979799,
          -39.511348685125796
        ]
      }
    },
    {
      "type": "Feature",
      "properties": {
        "norad_id": 37605,
        "name": "GSAT-8 (GAGAN/PRN 127)",
        "group": "gnss",
        "lat": 1.2073489422101007,
        "lon": -144.873165324109,
        "alt_km": 35759.19986470268,
        "timestamp": "2025-12-05T05:43:15.351300+00:00",
        "meta_object_name": "GSAT-8 (GAGAN/PRN 127)",
        "meta_object_id": "2011-022A",
        "meta_epoch": "2025-12-04T13:59:18.105216",
        "meta_mean_motion": 1.00273134,
        "meta_eccentricity": 0.0009073,
        "meta_inclination": 1.6271,
        "meta_ra_of_asc_node": 84.2789,
        "meta_arg_of_pericenter": 177.8294,
        "meta_mean_anomaly": 76.4599,
        "meta_ephemeris_type": 0,
        "meta_classification_type": "U",
        "meta_norad_cat_id": 37605,
        "meta_element_set_no": 999,
        "meta_rev_at_epoch": 5126,
        "meta_bstar": 0,
        "meta_mean_motion_dot": 9.8e-07,
        "meta_mean_motion_ddot": 0,
        "tle_line1": "1 37605U 11022A   25338.58284844  .00000098  00000+0  00000+0 0  9996",
        "tle_line2": "2 37605   1.6271  84.2789 0009073 177.8294  76.4599  1.00273134 51260"
      },
      "geometry": {
        "type": "Point",
        "coordinates": [
          -144.873165324109,
          1.2073489422101007
        ]
      }
    },
    {
      "type": "Feature",
      "properties": {
        "norad_id": 37763,
        "name": "BEIDOU-2 IGSO-4 (C09)",
        "group": "gnss",
        "lat": 54.301448409475015,
        "lon": -109.7915138094979,
        "alt_km": 36285.53231668056,
        "timestamp": "2025-12-05T05:43:15.351312+00:00",
        "meta_object_name": "BEIDOU-2 IGSO-4 (C09)",
        "meta_object_id": "2011-038A",
        "meta_epoch": "2025-12-01T12:32:09.960864",
        "meta_mean_motion": 1.00284074,
        "meta_eccentricity": 0.01487808,
        "meta_inclination": 54.5808,
        "meta_ra_of_asc_node": 167.4476,
        "meta_arg_of_pericenter": 230.2031,
        "meta_mean_anomaly": 315.0387,
        "meta_ephemeris_type": 0,
        "meta_classification_type": "U",
        "meta_norad_cat_id": 37763,
        "meta_element_set_no": 999,
        "meta_rev_at_epoch": 5266,
        "meta_bstar": 0,
        "meta_mean_motion_dot": 1.01e-06,
        "meta_mean_motion_ddot": 0,
        "tle_line1": "1 37763U 11038A   25335.52233751  .00000101  00000+0  00000+0 0  9995",
        "tle_line2": "2 37763  54.5808 167.4476 0148780 230.2031 315.0387  1.00284074 52664"
      },
      "geometry": {
        "type": "Point",
        "coordinates": [
          -109.7915138094979,
          54.301448409475015
        ]
      }
    }
  ]
}